{"type": "FeatureCollection", "features": [ {"type": "Feature", "properties": {"norad_id": 61186, "name": "BEIDOU-3 M25 (C47)", "group": "beidou", "lat": -8.658211760431357, "lon": 134.6336090384258, "alt_km": 21534.42357885492, "timestamp": "2025-12-20T09:36:01.911138+00:00", "meta": {"OBJECT_NAME": "BEIDOU-3 M25 (C47)", "OBJECT_ID": "2024-168B", "EPOCH": "2025-12-19T20:26:35.565792", "MEAN_MOTION": 1.86230275, "ECCENTRICITY": 0.00054526, "INCLINATION": 54.6358, "RA_OF_ASC_NODE": 308.4741, "ARG_OF_PERICENTER": 299.4214, "MEAN_ANOMALY": 243.6633, "EPHEMERIS_TYPE": 0, "CLASSIFICATION_TYPE": "U", "NORAD_CAT_ID": 61186, "ELEMENT_SET_NO": 999, "REV_AT_EPOCH": 844, "BSTAR": 0, "MEAN_MOTION_DOT": -7.4e-07, "MEAN_MOTION_DDOT": 0}, "tle": {"line1": "1 61186U 24168B   25353.85180053 -.00000074  00000+0  00000+0 0  9991", "line2": "2 61186  54.6358 308.4741 0005452 299.4214 243.6633  1.86230275  8446"}}, "geometry": {"type": "Point", "coordinates": [134.6336090384258, -8.658211760431357]}}, {"type": "Feature", "properties": {"norad_id": 61187, "name": "BEIDOU-3 M27 (C49)", "group": "beidou", "lat": -27.44258352944314, "lon": -73.2091953200887, "alt_km": 21524.838443539575, "timestamp": "2025-12-20T09:36:01.911149+00:00", "meta": {"OBJECT_NAME": "BEIDOU-3 M27 (C49)", "OBJECT_ID": "2024-168C", "EPOCH": "2025-12-19T13:44:54.698784", "MEAN_MOTION": 1.8623043, "ECCENTRICITY": 0.0002515, "INCLINATION": 54.6314, "RA_OF_ASC_NODE": 308.4673, "ARG_OF_PERICENTER": 339.733, "MEAN_ANOMALY": 151.2797, "EPHEMERIS_TYPE": 0, "CLASSIFICATION_TYPE": "U", "NORAD_CAT_ID": 61187, "ELEMENT_SET_NO": 999, "REV_AT_EPOCH": 591, "BSTAR": 0, "MEAN_MOTION_DOT": -7.6e-07, "MEAN_MOTION_DDOT": 0}, "tle": {"line1": "1 61187U 24168C   25353.57285531 -.00000076  00000+0  00000+0 0  9990", "line2": "2 61187  54.6314 308.4673 0002515 339.7330 151.2797  1.86230430  5914"}}, "geometry": {"type": "Point", "coordinates": [-73.2091953200887, -27.44258352944314]}}]}